GAOFEN-11 01            
1 43585U 18063A   26177.30885853  .00022303  00000+0  32708-3 0  9998
2 43585  97.1288 244.1639 0002184 312.9194  47.1877 15.55546049441765
ICESAT-2                
1 43613U 18070A   26177.25641178  .00011118  00000+0  40464-3 0  9992
2 43613  92.0081 293.4292 0006229  98.5343 261.6613 15.28180926433840
HYSIS                   
1 43719U 18096A   26177.27942332  .00001416  00000+0  20045-3 0  9998
2 43719  97.9839 243.9565 0001843  93.6722 266.4700 14.78634001408764
KAZSTSAT                
1 43783U 18099AB  26176.63687971  .00001899  00000+0  15753-3 0  9991
2 43783  97.4285 208.1817 0008589  46.7589 313.4351 14.99894182412572
SAUDISAT 5A             
1 43831U 18102A   26177.33251536  .00006074  00000+0  22373-3 0  9998
2 43831  97.3069 238.7371 0011317 101.3596 258.8916 15.28137120417072
SAUDISAT 5B             
1 43833U 18102C   26177.28436549  .00005792  00000+0  21180-3 0  9994
2 43833  97.3178 241.7761 0012040 103.4265 256.8318 15.28388713417184
GAOFEN-10R              
1 44622U 19066A   26177.19476152  .00001104  00000+0  14253-3 0  9991
2 44622  98.0499 130.8396 0007123 101.8406 258.3606 14.83017983363716
CARTOSAT-3              
1 44804U 19081A   26177.31223411  .00005716  00000+0  27419-3 0  9993
2 44804  97.4308 239.0328 0013180 118.9919 241.2639 15.19201502364850
GAOFEN-12 01            
1 44819U 19082A   26177.27165282  .00000380  00000+0  56285-4 0  9992
2 44819  97.8101 183.4112 0001933  60.9689 299.1717 14.80465321355438
CSG-1                   
1 44873U 19092A   26177.30028227  .00000425  00000+0  59912-4 0  9994
2 44873  97.8890   0.7708 0001448  89.9445 270.1934 14.82160331352822
NEMO-HD                 
1 46277U 20061F   26177.32867161  .00011635  00000+0  25049-3 0  9990
2 46277  97.1923 239.1895 0001842  74.9584 285.1869 15.44770279323393
SENTINEL-6A             
1 46984U 20086A   26177.22036792 -.00000071  00000+0 -43732-4 0  9993
2 46984  66.0408 116.2907 0007867 270.0356  89.9757 12.80929990261489
CAS500-1                
1 47932U 21022A   26177.27850693  .00006485  00000+0  30265-3 0  9996
2 47932  97.3897  72.3477 0003546 250.3379 109.7474 15.20170942292148
GAOFEN-12 02            
1 48079U 21026A   26177.28368662  .00000357  00000+0  53779-4 0  9992
2 48079  97.9923 175.4271 0004383 187.4761 172.6386 14.80302621283102
PLEIADES NEO 3          
1 48268U 21034A   26177.30249900  .00001436  00000+0  18901-3 0  9993
2 48268  97.8933 251.9380 0001389  88.9329 271.2043 14.81672507279005
PLEIADES NEO 4          
1 49070U 21073E   26176.79598639  .00000871  00000+0  11725-3 0  9995
2 49070  97.8934 251.4352 0001377  85.9629 274.1741 14.81678649262641
LANDSAT 9               
1 49260U 21088A   26177.19230227  .00000314  00000+0  79879-4 0  9990
2 49260  98.2278 247.2607 0001275  84.6277 275.5067 14.57102844252317
CSG-2                   
1 51444U 22008A   26177.26650241  .00000525  00000+0  72467-4 0  9990
2 51444  97.8890   0.7324 0001539  86.5630 273.5759 14.82150152237934
GAOFEN-12 03            
1 52912U 22069A   26177.24760301  .00001141  00000+0  15738-3 0  9997
2 52912  97.8274  64.8890 0002317  93.4009 266.7468 14.80047910215956
SWOT                    
1 54754U 22173A   26177.27730821  .00000023  00000+0  17050-4 0  9994
2 54754  77.6102  23.0383 0000283  86.2040 273.9144 14.00170641180421
GAOFEN-12 04            
1 57654U 23123A   26177.26346038  .00000484  00000+0  71174-4 0  9992
2 57654  97.9116  95.1502 0003988  89.1022 271.0647 14.79741898153974
PARS 1                  
1 59065U 24039Q   26177.24771321  .00012049  00000+0  24906-3 0  9992
2 59065  97.4819 158.4535 0011528  85.1527 275.1038 15.45904291130045
RESURS-P 4              
1 59371U 24061A   26177.14531370  .00003243  00000+0  10684-3 0  9998
2 59371  97.2749 124.8879 0002760 116.6075 243.5450 15.32178715125130
LEGION 1                
1 59625U 24081A   26177.26554862  .00003656  00000+0  18978-3 0  9998
2 59625  97.5020 255.0255 0008632 346.1076  13.9918 15.16724280118919
LEGION 2                
1 59626U 24081B   26177.22968344  .00004395  00000+0  22750-3 0  9993
2 59626  97.5019 255.0873 0010086 309.3107  50.7231 15.16702145118919
ALOS-4 (DAICHI-4)       
1 60182U 24123A   26177.28896175  .00004484  00000+0  60682-3 0  9992
2 60182  97.9216 274.3343 0001609  97.3393 262.8002 14.79475078107223
LEGION 3                
1 60452U 24146A   26177.15805871  .00004263  00000+0  23081-3 0  9993
2 60452  45.0026 342.4412 0008719 220.3591 139.6641 15.16106210103381
LEGION 4                
1 60453U 24146B   26177.16122355  .00004263  00000+0  23074-3 0  9996
2 60453  45.0017  74.3343 0012777 356.9313   3.1485 15.16097368102230
SENTINEL-2C             
1 60989U 24157A   26177.19351700  .00000092  00000+0  51714-4 0  9992
2 60989  98.5691 251.8483 0000939  87.8570 272.2721 14.30820079 94278
IONOSFERA-M 1           
1 61735U 24199A   26177.26583197  .00000054  00000+0  43907-4 0  9996
2 61735  98.7164  50.3417 0002150  98.3724 261.7698 14.22755895128996
