OBJECT_NAME,OBJECT_ID,EPOCH,MEAN_MOTION,ECCENTRICITY,INCLINATION,RA_OF_ASC_NODE,ARG_OF_PERICENTER,MEAN_ANOMALY,EPHEMERIS_TYPE,CLASSIFICATION_TYPE,NORAD_CAT_ID,ELEMENT_SET_NO,REV_AT_EPOCH,BSTAR,MEAN_MOTION_DOT,MEAN_MOTION_DDOT
GAOFEN-11 01,2018-063A,2026-06-26T07:24:45.376992,15.55546049,.00021847,97.1288,244.1639,312.9194,47.1877,0,U,43585,999,44176,.32708005E-3,.22303E-3,0
ICESAT-2,2018-070A,2026-06-26T06:09:13.977792,15.28180926,.0006229,92.0081,293.4292,98.5343,261.6613,0,U,43613,999,43384,.40464428E-3,.11118E-3,0
HYSIS,2018-096A,2026-06-26T06:42:22.174848,14.78634001,.00018434,97.9839,243.9565,93.6722,266.4700,0,U,43719,999,40876,.20044819E-3,.1416E-4,0
KAZSTSAT,2018-099AB,2026-06-25T15:17:06.406944,14.99894182,.00085895,97.4285,208.1817,46.7589,313.4351,0,U,43783,999,41257,.15752709E-3,.1899E-4,0
SAUDISAT 5A,2018-102A,2026-06-26T07:58:49.327104,15.28137120,.00113174,97.3069,238.7371,101.3596,258.8916,0,U,43831,999,41707,.22373079E-3,.6074E-4,0
SAUDISAT 5B,2018-102C,2026-06-26T06:49:29.178336,15.28388713,.00120407,97.3178,241.7761,103.4265,256.8318,0,U,43833,999,41718,.21179831E-3,.5792E-4,0
GAOFEN-10R,2019-066A,2026-06-26T04:40:27.395328,14.83017983,.00071234,98.0499,130.8396,101.8406,258.3606,0,U,44622,999,36371,.14253157E-3,.1104E-4,0
CARTOSAT-3,2019-081A,2026-06-26T07:29:37.027104,15.19201502,.00131806,97.4308,239.0328,118.9919,241.2639,0,U,44804,999,36485,.27419458E-3,.5716E-4,0
GAOFEN-12 01,2019-082A,2026-06-26T06:31:10.803648,14.80465321,.00019337,97.8101,183.4112,60.9689,299.1717,0,U,44819,999,35543,.56284693E-4,.38E-5,0
CSG-1,2019-092A,2026-06-26T07:12:24.388128,14.82160331,.00014484,97.8890,0.7708,89.9445,270.1934,0,U,44873,999,35282,.59912154E-4,.425E-5,0
NEMO-HD,2020-061F,2026-06-26T07:53:17.227104,15.44770279,.00018427,97.1923,239.1895,74.9584,285.1869,0,U,46277,999,32339,.25048806E-3,.11635E-3,0
SENTINEL-6A,2020-086A,2026-06-26T05:17:19.788288,12.80929990,.00078675,66.0408,116.2907,270.0356,89.9757,0,U,46984,999,26148,-.43732081E-4,-.71E-6,0
CAS500-1,2021-022A,2026-06-26T06:41:02.998752,15.20170942,.0003546,97.3897,72.3477,250.3379,109.7474,0,U,47932,999,29214,.30265269E-3,.6485E-4,0
GAOFEN-12 02,2021-026A,2026-06-26T06:48:30.523968,14.80302621,.0004383,97.9923,175.4271,187.4761,172.6386,0,U,48079,999,28310,.53779198E-4,.357E-5,0
PLEIADES NEO 3,2021-034A,2026-06-26T07:15:35.913600,14.81672507,.00013896,97.8933,251.9380,88.9329,271.2043,0,U,48268,999,27900,.18901489E-3,.1436E-4,0
PLEIADES NEO 4,2021-073E,2026-06-25T19:06:13.224096,14.81678649,.00013774,97.8934,251.4352,85.9629,274.1741,0,U,49070,999,26264,.11724812E-3,.871E-5,0
LANDSAT 9,2021-088A,2026-06-26T04:36:54.916128,14.57102844,.00012754,98.2278,247.2607,84.6277,275.5067,0,U,49260,999,25231,.79878672E-4,.314E-5,0
CSG-2,2022-008A,2026-06-26T06:23:45.808224,14.82150152,.00015397,97.8890,0.7324,86.5630,273.5759,0,U,51444,999,23793,.72466525E-4,.525E-5,0
GAOFEN-12 03,2022-069A,2026-06-26T05:56:32.900064,14.80047910,.00023175,97.8274,64.8890,93.4009,266.7468,0,U,52912,999,21595,.15737884E-3,.1141E-4,0
SWOT,2022-173A,2026-06-26T06:39:19.429344,14.00170641,.00002839,77.6102,23.0383,86.2040,273.9144,0,U,54754,999,18042,.17049656E-4,.23E-6,0
GAOFEN-12 04,2023-123A,2026-06-26T06:19:22.976832,14.79741898,.00039883,97.9116,95.1502,89.1022,271.0647,0,U,57654,999,15397,.71174425E-4,.484E-5,0
PARS 1,2024-039Q,2026-06-26T05:56:42.421344,15.45904291,.00115281,97.4819,158.4535,85.1527,275.1038,0,U,59065,999,13004,.24906465E-3,.12049E-3,0
RESURS-P 4,2024-061A,2026-06-26T03:29:15.103680,15.32178715,.00027603,97.2749,124.8879,116.6075,243.5450,0,U,59371,999,12513,.10684347E-3,.3243E-4,0
LEGION 1,2024-081A,2026-06-26T06:22:23.400768,15.16724280,.00086328,97.5020,255.0255,346.1076,13.9918,0,U,59625,999,11891,.18978181E-3,.3656E-4,0
LEGION 2,2024-081B,2026-06-26T05:30:44.649216,15.16702145,.00100864,97.5019,255.0873,309.3107,50.7231,0,U,59626,999,11891,.22749543E-3,.4395E-4,0
ALOS-4 (DAICHI-4),2024-123A,2026-06-26T06:56:06.295200,14.79475078,.00016095,97.9216,274.3343,97.3393,262.8002,0,U,60182,999,10722,.60681806E-3,.4484E-4,0
LEGION 3,2024-146A,2026-06-26T03:47:36.272544,15.16106210,.00087199,45.0026,342.4412,220.3591,139.6641,0,U,60452,999,10338,.2308062E-3,.4263E-4,0
LEGION 4,2024-146B,2026-06-26T03:52:09.714720,15.16097368,.00127771,45.0017,74.3343,356.9313,3.1485,0,U,60453,999,10223,.23074402E-3,.4263E-4,0
SENTINEL-2C,2024-157A,2026-06-26T04:38:39.868800,14.30820079,.00009396,98.5691,251.8483,87.8570,272.2721,0,U,60989,999,9427,.51713983E-4,.92E-6,0
IONOSFERA-M 1,2024-199A,2026-06-26T06:22:47.882208,14.22755895,.00021504,98.7164,50.3417,98.3724,261.7698,0,U,61735,999,12899,.43906888E-4,.54E-6,0
